AKEBONO (EXOS-D)        
1 19822U 89016A   20257.48610172  .00020060  30034-6  34631-3 0  9995
2 19822  75.0067 319.8031 1714922 161.7228 205.4203 12.11956801 50259
HST                     
1 20580U 90037B   20257.06692130  .00000371  00000-0  11532-4 0  9994
2 20580  28.4694 100.1643 0002571 317.1951 304.6734 15.09429956469216
POLAR                   
1 23802U 96013A   20255.95189617  .00000264  00000-0  00000-0 0  9996
2 23802  78.7084 248.7242 6243005 280.4320  18.9652  1.29846497117537
SWAS                    
1 25560U 98071A   20257.17055422  .00000077  00000-0  15818-4 0  9996
2 25560  69.8992 162.9449 0009742 225.0832 134.9534 14.93905168182121
ORSTED                  
1 25635U 99008B   20257.52416644  .00000093  00000-0  29207-4 0  9991
2 25635  96.4460 261.0582 0140359  69.7811 291.8417 14.48221856137644
CXO                     
1 25867U 99040B   20259.08071541  .00000816  00000-0  00000-0 0  9999
2 25867  60.9336 264.6160 7880940 227.2184   0.5890  0.37809052  9403
XMM-NEWTON              
1 25989U 99066A   20259.29888031  .00000254  00000-0  00000-0 0  9991
2 25989  71.0854 318.7053 6996104  92.5490   0.2212  0.50136145 12477
TERRA                   
1 25994U 99068A   20257.41077168 -.00000065  00000-0 -44833-5 0  9991
2 25994  98.2067 330.4480 0001570 108.1630 251.9735 14.57114394103125
CLUSTER II-FM7 (SAMBA)  
1 26410U 00041A   20259.82272705 -.00000091  00000-0  00000+0 0  9999
2 26410 132.0641 342.3260 4505107 185.5664   0.0608  0.44189284 22748
CLUSTER II-FM6 (SALSA)  
1 26411U 00041B   20259.91997996 -.00000235  00000-0  00000+0 0  9996
2 26411 132.1797 343.6986 5841914 191.1965   0.0813  0.44215658 22055
CLUSTER II-FM5 (RUMBA)  
1 26463U 00045A   20259.87960668 -.00000157  00000-0  00000+0 0  9991
2 26463 135.8188 343.4098 5438529 191.0145   0.1294  0.44215117 23326
CLUSTER II-FM8 (TANGO)  
1 26464U 00045B   20259.81182056 -.00000091  00000-0  00000-0 0  9991
2 26464 132.0681 342.3211 4501014 185.5599   0.0545  0.44218886 10992
ODIN                    
1 26702U 01007A   20257.03642540 -.00000185  00000-0 -78941-5 0  9995
2 26702  97.5533 272.5338 0010288 335.3182  24.7553 15.08143625 69416
TIMED                   
1 26998U 01055B   20257.12426847  .00000057  00000-0  10189-4 0  9990
2 26998  74.0713 118.6702 0001522 222.8480 137.2582 14.88213222 17503
RHESSI                  
1 27370U 02004A   20257.47582372  .00001708  00000-0  56553-4 0  9993
2 27370  38.0341   2.3033 0012532 331.0353  28.9722 15.33090585 27853
INTEGRAL                
1 27540U 02048A   20254.60094221  .00000567  00000-0  00000-0 0  9997
2 27540  56.5863 106.9827 8979188 293.9909   1.9616  0.37578603 18749
CORIOLIS                
1 27640U 03001A   20257.49964635  .00000003  00000-0  22200-4 0  9998
2 27640  98.7273 265.5971 0014861 140.3400  12.9572 14.19046409915902
SORCE                   
1 27651U 03004A   20257.16194451  .00000025  00000-0  16712-4 0  9993
2 27651  39.9950 200.8964 0023716 274.7104  85.0977 14.89144943957274
MOST                    
1 27843U 03031D   20257.02957373 -.00000005  00000-0  17925-4 0  9997
2 27843  98.7112 263.0576 0009657 195.0343 165.0548 14.20617035892035
SCISAT 1                
1 27858U 03036A   20257.56877196 -.00000004  00000-0  45170-5 0  9994
2 27858  73.9352  11.0625 0008340 206.7124 153.3621 14.77299945920664
SWIFT                   
1 28485U 04047A   20257.03239954  .00000774  00000-0  22254-4 0  9990
2 28485  20.5561 131.7591 0011215  85.1380 275.0334 15.04671773866702
FORMOSAT-3 FM6          
1 29047U 06011A   20257.48532795 -.00000070  00000-0 -10993-4 0  9994
2 29047  71.9754 290.3128 0052467 270.2109  89.3015 14.28745566753905
FORMOSAT-3 FM1          
1 29048U 06011B   20257.22613180  .00000041  00000-0  32543-4 0  9996
2 29048  71.9666 201.6462 0045256 230.3598 129.3541 14.28715997756346
FORMOSAT-3 FM5          
1 29049U 06011C   20257.08221556 -.00000048  00000-0 -27745-5 0  9991
2 29049  72.0228  14.0862 0036742 255.8114 103.8940 14.28795514752113
FORMOSAT-3 FM3          
1 29050U 06011D   20257.45605511  .00000120  00000-0  35587-4 0  9992
2 29050  72.0160 150.4278 0049365 166.9987 193.2452 14.58945346769269
FORMOSAT-3 FM4          
1 29051U 06011E   20257.22053701  .00000060  00000-0  38976-4 0  9994
2 29051  72.0033 275.6930 0066686 134.3419 226.3210 14.28828476754724
FORMOSAT-3 FM2          
1 29052U 06011F   20257.21364294  .00000042  00000-0  32486-4 0  9996
2 29052  72.0367 350.1741 0041147 216.1081 143.7276 14.28934558752230
CLOUDSAT                
1 29107U 06016A   20257.15252692  .00000063  00000-0  21810-4 0  9995
2 29107  98.2378 204.1503 0002896 100.7383 259.4144 14.62454962765145
CALIPSO                 
1 29108U 06016B   20257.49427620  .00000068  00000-0  22858-4 0  9996
2 29108  98.2362 204.2567 0001264  78.7560 281.3783 14.62438058765207
HINODE (SOLAR-B)        
1 29479U 06041A   20257.52603005  .00000063  00000-0  20740-4 0  9995
2 29479  98.1597 268.6241 0018479  91.5320 268.8000 14.65084435746797
SJ-6C                   
1 29505U 06046A   20257.47892070  .00000731  00000-0  72306-4 0  9993
2 29505  97.8162 270.8932 0006321  97.7226 262.4709 14.94917749756768
SJ-6D                   
1 29506U 06046B   20257.37181662 -.00000437  00000-0 -36038-4 0  9998
2 29506  97.8358 270.9341 0002217 154.3591 205.7755 14.93526710756298
AGILE                   
1 31135U 07013A   20256.51505503  .00002139  00000-0  30549-4 0  9993
2 31135   2.4671 233.0741 0011568  98.0088 262.1279 15.32505928745420
AIM                     
1 31304U 07015A   20257.16181641  .00000547  00000-0  34316-4 0  9995
2 31304  97.8939 143.1705 0006566  64.8996 295.2915 15.13711845733950
FGRST (GLAST)           
1 33053U 08029A   20257.18942947  .00000442  00000-0  84573-5 0  9995
2 33053  25.5821 222.8858 0012025 303.9227  56.0165 15.11367879676606
WISE                    
1 36119U 09071A   20257.55782737  .00000545  00000-0  21174-4 0  9990
2 36119  97.3216 292.6181 0004255  79.9173 280.2547 15.30228384597297
SDO                     
1 36395U 10005A   20257.16961209 -.00000077  00000-0  00000-0 0  9997
2 36395  30.4655 119.8344 0001375  15.1974 176.7805  1.00275566 38977
CRYOSAT 2               
1 36508U 10013A   20257.19677727  .00000048  00000-0  11133-4 0  9994
2 36508  92.0254 129.0122 0003586 276.6559  83.4240 14.51902158553005
X-SAT                   
1 37389U 11015C   20257.39502948 -.00000025  00000-0  70679-5 0  9996
2 37389  98.4264 309.1974 0014836  37.3223 322.8988 14.24381432488800
GCOM-W1 (SHIZUKU)       
1 38337U 12025A   20257.45025899  .00000013  00000-0  12952-4 0  9999
2 38337  98.2011 196.1667 0002541  69.9359  42.0027 14.57076932442814
NUSTAR                  
1 38358U 12031A   20256.63536784  .00000910  00000-0  21360-4 0  9997
2 38358   6.0274 355.7259 0011236  66.0559 294.0746 14.88337915449028
NEOSSAT                 
1 39089U 13009D   20257.08911390  .00000049  00000-0  32709-4 0  9997
2 39089  98.4619  97.1640 0011985  32.2596 327.9320 14.34521260395120
IRIS                    
1 39197U 13033A   20257.10048971  .00000063  00000-0  15794-4 0  9994
2 39197  97.9616  78.2416 0026587 308.4190  51.4634 14.78750728389057
HISAKI (SPRINT-A)       
1 39253U 13049A   20257.31762209  .00000085  00000-0  23967-4 0  9999
2 39253  29.7201 107.7812 0137536 253.7504 104.7897 13.55227667346971
CASSIOPE                
1 39265U 13055A   20257.22391522  .00004138  00000-0  11481-3 0  9995
2 39265  80.9662 222.6410 0659946  46.3235 319.0727 14.29804991360349
STSAT-3                 
1 39422U 13066G   20257.22470562  .00000103  00000-0  16178-4 0  9991
2 39422  97.5064 285.5538 0021463 260.7948  99.0843 14.89855910370206
SWARM B                 
1 39451U 13067A   20257.25225692  .00000250  00000-0  94338-5 0  9997
2 39451  87.7481 253.5065 0001804 110.8529 249.2910 15.21780331363318
SWARM A                 
1 39452U 13067B   20257.56344000  .00000852  00000-0  17257-4 0  9999
2 39452  87.3563  98.6513 0003416  80.2224 279.9420 15.44702866382820
SWARM C                 
1 39453U 13067C   20257.56336242  .00000846  00000-0  17129-4 0  9990
2 39453  87.3416  99.4303 0003416  80.2859 279.8784 15.44703542382787
BRITE-CA1 (TORONTO)     
1 40020U 14033L   20257.48927846  .00000020  00000-0  11617-4 0  9993
2 40020  97.7322  80.6653 0088022 150.9318 209.6829 14.66658704333678
OCO 2                   
1 40059U 14035A   20257.15065701 -.00000036  00000-0  20080-5 0  9997
2 40059  98.2001 196.6258 0001367  76.5182 283.6169 14.57113528329795
BRITE-PL2 (HEWELIUSZ)   
1 40119U 14049B   20257.21343599  .00000042  00000-0  11380-4 0  9998
2 40119  97.8947 348.5700 0017485 177.6466 182.4834 14.84531534328719
RESURS P2               
1 40360U 14087A   20257.46157123  .00000359  00000-0  13363-4 0  9995
2 40360  97.2435 344.5502 0007876 222.1424 199.8941 15.33646344319804
MMS 1                   
1 40482U 15011A   20256.02083333 -.00001511  00000-0  00000+0 0  9991
2 40482  30.1499 119.7099 8548325  23.7739   7.9884  0.28646825 11467
MMS 2                   
1 40483U 15011B   20256.02083333 -.00001510  00000-0  00000+0 0  9991
2 40483  30.1487 119.7110 8545795  23.7758   7.9783  0.28646777 11440
MMS 3                   
1 40484U 15011C   20256.02083333 -.00001512  00000-0  00000+0 0  9994
2 40484  30.1536 119.6886 8547772  23.8087   7.9522  0.28634589 11447
MMS 4                   
1 40485U 15011D   20256.02083333 -.00001511  00000-0  00000+0 0  9994
2 40485  30.1494 119.7231 8547521  23.7781   7.9389  0.28646742 11443
ASTROSAT                
1 40930U 15052A   20257.32533909  .00000705  00000-0  99879-5 0  9998
2 40930   5.9970  75.9664 0008015  70.1355 289.9636 14.76329192268227
DAMPE                   
1 41173U 15078A   20257.49456269  .00000046  00000-0  47959-5 0  9997
2 41173  97.3301 249.4882 0012506 307.0268 169.1438 15.23897051263800
PISAT                   
1 41784U 16059B   20257.42081196  .00000050  00000-0  18672-4 0  9995
2 41784  98.0103 311.4877 0032712  38.3719 321.9801 14.63536751211777
HXMT (HUIYAN)           
1 42758U 17034A   20257.51335962  .00000104  00000-0  20163-4 0  9992
2 42758  43.0189 272.8905 0011103 228.0283 263.2257 15.08886749179175
FLYING LAPTOP           
1 42831U 17042G   20257.43680101 -.00000012  00000-0  40839-5 0  9994
2 42831  97.5078 135.1783 0014083 358.5862   1.5315 14.91155238172405
PICSAT                  
1 43132U 18004X   20257.20238711  .00001052  00000-0  45515-4 0  9998
2 43132  97.4408 327.9861 0011176 103.5329 256.7154 15.24611421148428
ZHANGZHENG-1 (CSES)     
1 43194U 18015C   20257.47306587  .00000899  00000-0  43760-4 0  9992
2 43194  97.4466  21.4551 0015923 154.6654 270.2814 15.20846418145045
ICON                    
1 44628U 19068A   20257.46739059  .00000399  00000-0  18865-4 0  9990
2 44628  26.9892 179.2942 0018984 205.3358 154.6269 14.91730542 50578
